     2.10           N: GPS NAV DATA                         RINEX VERSION / TYPE
teqc  2010Oct21                         20111225 11:51:30UTCPGM / RUN BY / DATE
Linux 2.4.21-27.ELsmp|Opteron|gcc -static|Linux x86_64|=+   COMMENT
     2              NAVIGATION DATA                         COMMENT
CCRINEXN V1.6.0 UX  CDDIS               02-NOV-11 15:33     COMMENT
IGS BROADCAST EPHEMERIS FILE                                COMMENT
    2.1420D-08 -7.4510D-09 -1.1920D-07  1.1920D-07          ION ALPHA
    1.2900D+05 -4.9150D+04 -1.9660D+05  6.5540D+04          ION BETA
    4.656612873080D-09 1.421085471520D-14   319488     1660 DELTA-UTC: A0,A1,T,W
    15                                                      LEAP SECONDS
Orbitas transmitidas adaptadas do arquivo brdc de orbitas   COMMENT
Transmitidas disponibilizadas pelo IGS                      COMMENT
                                                            END OF HEADER
31 11 11  1 10  0  0.0 1.633823849260D-04 5.229594535190D-12 0.000000000000D+00
    7.000000000000D+00 1.784375000000D+01 4.276606709260D-09-2.565208441170D+00
    1.141801476480D-06 7.775998325090D-03 4.021450877190D-06 5.153765653610D+03
    2.088000000000D+05-3.539025783540D-08-5.960281037630D-01 1.378357410430D-07
    9.804888193520D-01 3.112500000000D+02-9.495490792050D-01-7.970689154050D-09
    1.589351917170D-10 1.000000000000D+00 1.660000000000D+03 0.000000000000D+00
    2.000000000000D+00 0.000000000000D+00-1.303851604460D-08 7.000000000000D+00
    2.039100000000D+05
32 11 11  1 10  0  0.0-3.547393716870D-04-6.025402399250D-12 0.000000000000D+00
    5.100000000000D+01 2.662500000000D+01 4.549475218190D-09-1.801274627300D+00
    1.437962055210D-06 1.217096357140D-02 9.043142199520D-06 5.153537872310D+03
    2.088000000000D+05-3.073364496230D-07-2.617314929420D+00 3.352761268620D-08
    9.537323753760D-01 2.050312500000D+02-6.986499608210D-01-8.111766459060D-09
   -1.975082270100D-10 1.000000000000D+00 1.660000000000D+03 0.000000000000D+00
    2.000000000000D+00 0.000000000000D+00-2.793967723850D-09 5.100000000000D+01
    2.016180000000D+05 4.000000000000D+00
15 11 11  1 11 59 44.0-1.006810925900D-04 1.136868377220D-12 0.000000000000D+00
    2.200000000000D+01 7.793750000000D+01 4.596262881370D-09 6.819202812880D-01
    4.045665264130D-06 3.869177075100D-03 7.871538400650D-06 5.153715080260D+03
    2.159840000000D+05 9.126961231230D-08-1.677399736310D+00 2.607703208920D-08
    9.478050219180D-01 2.194375000000D+02-7.302512690970D-02-8.203913154480D-09
   -1.535778257040D-11 0.000000000000D+00 1.660000000000D+03 0.000000000000D+00
    2.000000000000D+00 0.000000000000D+00-1.024454832080D-08 2.200000000000D+01
    2.088000000000D+05 4.000000000000D+00
16 11 11  1 11 59 44.0-2.065366134050D-04-2.046363078990D-12 0.000000000000D+00
    8.000000000000D+00-7.978125000000D+01 4.290893018630D-09 2.235047215810D+00
   -3.989785909650D-06 6.131432368420D-03 6.476417183880D-06 5.153549201970D+03
    2.159840000000D+05-1.862645149230D-08 4.749058686840D-01 1.229345798490D-07
    9.782777576530D-01 2.652812500000D+02-7.240500032460D-02-7.962831683900D-09
   -5.000208278740D-11 1.000000000000D+00 1.660000000000D+03 0.000000000000D+00
    2.000000000000D+00 0.000000000000D+00-9.778887033460D-09 8.000000000000D+00
    2.136000000000D+05
23 11 11  1 11 59 44.0 2.630688250070D-04-3.183231456210D-12 0.000000000000D+00
    1.100000000000D+01 6.343750000000D+01 4.363038880940D-09 9.824213926520D-02
    3.399327397350D-06 7.554008276200D-03 7.754191756250D-06 5.153716461180D+03
    2.159840000000D+05 1.303851604460D-07-1.644723336850D+00 2.421438694000D-08
    9.623994584060D-01 2.306562500000D+02-3.035287922210D+00-8.154982544900D-09
    6.357407668690D-11 1.000000000000D+00 1.660000000000D+03 0.000000000000D+00
    2.000000000000D+00 0.000000000000D+00-2.048909664150D-08 1.100000000000D+01
    2.117280000000D+05 4.000000000000D+00
29 11 11  1 11 59 44.0 2.535232342780D-04 3.296918293930D-12 0.000000000000D+00
    3.300000000000D+01-3.781250000000D+01 4.441613582460D-09-2.188173731820D+00
   -2.032145857810D-06 2.113269176330D-03 1.015141606330D-05 5.153700361250D+03
    2.159840000000D+05-1.862645149230D-09 1.525181107420D+00 8.754432201390D-08
    9.620024004960D-01 1.823750000000D+02-1.177517710100D+00-7.863184676060D-09
    1.825076021740D-10 0.000000000000D+00 1.660000000000D+03 0.000000000000D+00
    2.000000000000D+00 0.000000000000D+00-9.313225746160D-09 3.300000000000D+01
    2.137500000000D+05 4.000000000000D+00
 1 11 11  1 12  0  0.0 6.725126877430D-05 2.421529643470D-11 0.000000000000D+00
    1.100000000000D+01 9.500000000000D+00 4.687338103590D-09-2.148545567590D+00
    4.973262548450D-07 4.597320221360D-04 7.489696145060D-06 5.153660223010D+03
    2.160000000000D+05-1.117587089540D-08 2.523983478450D+00-3.725290298460D-09
    9.603051258660D-01 2.374375000000D+02 1.396011556020D+00-8.068907530960D-09
   -1.571494030460D-11 1.000000000000D+00 1.660000000000D+03 0.000000000000D+00
    2.000000000000D+00 0.000000000000D+00 7.916241884230D-09 1.100000000000D+01
    2.088180000000D+05 4.000000000000D+00
 2 11 11  1 12  0  0.0 3.635319881140D-04 1.818989403550D-12 0.000000000000D+00
    1.200000000000D+01 8.812500000000D+00 5.413082426740D-09 1.131702307940D-02
    3.874301910400D-07 1.058895955790D-02 6.815418601040D-06 5.153585165020D+03
    2.160000000000D+05 1.564621925350D-07 2.514760746950D+00 8.940696716310D-08
    9.388862043330D-01 2.374687500000D+02-2.919549943960D+00-8.593215028440D-09
   -4.285892821200D-11 1.000000000000D+00 1.660000000000D+03 0.000000000000D+00
    2.000000000000D+00 0.000000000000D+00-1.769512891770D-08 1.200000000000D+01
    2.088180000000D+05 4.000000000000D+00
 3 11 11  1 12  0  0.0 7.891100831330D-04 5.115907697470D-12 0.000000000000D+00
    6.200000000000D+01-4.512500000000D+01 5.424868824700D-09 1.688462845080D-01
   -2.143904566770D-06 1.489431119990D-02 8.840113878250D-06 5.153682273860D+03
    2.160000000000D+05-1.434236764910D-07 1.353912558270D+00 1.415610313420D-07
    9.294351200980D-01 1.937812500000D+02 1.152433461950D+00-8.632502435520D-09
    9.500395729620D-11 1.000000000000D+00 1.660000000000D+03 0.000000000000D+00
    2.800000000000D+00 0.000000000000D+00-4.656612873080D-09 6.200000000000D+01
    2.088180000000D+05 4.000000000000D+00
 4 11 11  1 12  0  0.0 2.777702175080D-04 1.125499693440D-11 0.000000000000D+00
    3.200000000000D+01 1.043750000000D+01 5.256647561680D-09-3.090753560030D+00
    4.637986421580D-07 9.948319871910D-03 6.899237632750D-06 5.153727457050D+03
    2.160000000000D+05 1.490116119380D-08 2.531919555950D+00-1.341104507450D-07
    9.379755846420D-01 2.339687500000D+02 7.909116953670D-01-8.246772154050D-09
   -1.428630976540D-12 1.000000000000D+00 1.660000000000D+03 0.000000000000D+00
    2.000000000000D+00 0.000000000000D+00-6.519258022310D-09 3.200000000000D+01
    2.088180000000D+05 4.000000000000D+00
 5 11 11  1 12  0  0.0-2.394523471590D-04-5.002220859750D-12 0.000000000000D+00
    5.800000000000D+01 2.396875000000D+01 4.680552106640D-09 1.999880984080D+00
    1.277774572370D-06 2.585159963930D-03 8.506700396540D-06 5.153785863880D+03
    2.160000000000D+05-3.725290298460D-09-2.706343609160D+00 1.303851604460D-08
    9.530639564020D-01 2.139375000000D+02 1.818748178730D-01-8.056049852530D-09
   -3.578720496640D-10 1.000000000000D+00 1.660000000000D+03 0.000000000000D+00
    2.000000000000D+00 0.000000000000D+00-1.024454832080D-08 5.800000000000D+01
    2.088000000000D+05
 6 11 11  1 12  0  0.0-3.915047273040D-05 6.366462912410D-12 0.000000000000D+00
    7.000000000000D+00-4.268750000000D+01 5.154143262180D-09 2.137467343950D+00
   -2.011656761170D-06 6.682694074700D-03 8.901581168170D-06 5.153705266950D+03
    2.160000000000D+05 1.583248376850D-07 1.428882043750D+00 6.705522537230D-08
    9.364351553120D-01 1.919062500000D+02-6.577048631100D-01-8.211413466900D-09
    8.428922527030D-11 1.000000000000D+00 1.660000000000D+03 0.000000000000D+00
    2.000000000000D+00 0.000000000000D+00-5.122274160390D-09 7.000000000000D+00
    2.146500000000D+05
 7 11 11  1 12  0  0.0 3.490597009660D-05 2.160049916710D-12 0.000000000000D+00
    1.600000000000D+01 8.656250000000D+00 4.301250466910D-09-1.508323788290D+00
    2.589076757430D-07 5.082526477050D-03 4.136934876440D-06 5.153633728030D+03
    2.160000000000D+05 5.215406417850D-08-5.980711332290D-01-2.607703208920D-08
    9.753762907830D-01 3.063437500000D+02-3.038786231860D+00-8.158196784790D-09
    2.010798055840D-10 1.000000000000D+00 1.660000000000D+03 0.000000000000D+00
    2.000000000000D+00 0.000000000000D+00-1.117587089540D-08 1.600000000000D+01
    2.088180000000D+05 4.000000000000D+00
 8 11 11  1 12  0  0.0 2.980232238770D-08 0.000000000000D+00 0.000000000000D+00
    5.000000000000D+00-1.937500000000D+00 3.873732890010D-09-2.023632047190D+00
   -3.222376108170D-07 1.215307286470D-02 4.375353455540D-06 5.153739591600D+03
    2.160000000000D+05 2.793967723850D-08-5.192205085330D-01-2.160668373110D-07
    9.973238772630D-01 3.184375000000D+02-3.010491454920D+00-7.879614294380D-09
    2.285809458380D-10 1.000000000000D+00 1.660000000000D+03 0.000000000000D+00
    2.000000000000D+00 0.000000000000D+00-4.190951585770D-09 5.000000000000D+00
    2.088180000000D+05 4.000000000000D+00
 9 11 11  1 12  0  0.0 1.155198551710D-04 2.501110429880D-12 0.000000000000D+00
    1.130000000000D+02 2.068750000000D+01 4.101956577240D-09-2.179290324170D+00
    1.296401023860D-06 1.718304643870D-02 3.615394234660D-06 5.153655088430D+03
    2.160000000000D+05 2.365559339520D-07-6.253346026680D-01 1.173466444020D-07
    9.841991979960D-01 3.179375000000D+02 1.601518779720D+00-7.887471401990D-09
    2.203663219990D-10 0.000000000000D+00 1.660000000000D+03 0.000000000000D+00
    2.000000000000D+00 0.000000000000D+00-5.587935447690D-09 1.130000000000D+02
    2.088000000000D+05 4.000000000000D+00
